{"fetched_at":"2026-07-13T18:16:54.871Z","source":"https://celestrak.org/NORAD/elements/gp.php?NAME=GLOBAL&FORMAT=JSON","constellation":"blacksky-gen3","records":[{"OBJECT_NAME":"GLOBAL-31","OBJECT_ID":"2025-033B","EPOCH":"2026-07-13T07:21:42.170112","CLASSIFICATION_TYPE":"U","MEAN_MOTION":15.38289809,"ECCENTRICITY":0.00118213,"INCLINATION":58.9964,"RA_OF_ASC_NODE":210.6063,"ARG_OF_PERICENTER":55.8695,"MEAN_ANOMALY":304.35,"EPHEMERIS_TYPE":0,"NORAD_CAT_ID":63027,"ELEMENT_SET_NO":999,"REV_AT_EPOCH":7834,"BSTAR":0.00016584094,"MEAN_MOTION_DOT":0.00005991,"MEAN_MOTION_DDOT":0},{"OBJECT_NAME":"GLOBAL-32","OBJECT_ID":"2025-118B","EPOCH":"2026-07-12T23:41:17.726208","CLASSIFICATION_TYPE":"U","MEAN_MOTION":15.39253621,"ECCENTRICITY":0.00163078,"INCLINATION":58.9937,"RA_OF_ASC_NODE":28.1181,"ARG_OF_PERICENTER":59.8008,"MEAN_ANOMALY":300.4681,"EPHEMERIS_TYPE":0,"NORAD_CAT_ID":64231,"ELEMENT_SET_NO":999,"REV_AT_EPOCH":6221,"BSTAR":0.00024259199,"MEAN_MOTION_DOT":0.00009241,"MEAN_MOTION_DDOT":0},{"OBJECT_NAME":"GLOBAL-34","OBJECT_ID":"2026-043A","EPOCH":"2026-07-13T00:34:45.994944","CLASSIFICATION_TYPE":"U","MEAN_MOTION":15.33080663,"ECCENTRICITY":0.00014753,"INCLINATION":42.0217,"RA_OF_ASC_NODE":71.3341,"ARG_OF_PERICENTER":116.4669,"MEAN_ANOMALY":243.6321,"EPHEMERIS_TYPE":0,"NORAD_CAT_ID":68098,"ELEMENT_SET_NO":999,"REV_AT_EPOCH":1979,"BSTAR":0.00020871707,"MEAN_MOTION_DOT":0.00006566,"MEAN_MOTION_DDOT":0}]}
