GLOBAL-31               
1 63027U 25033B   26194.30673808  .00005991  00000+0  16584-3 0  9998
2 63027  58.9964 210.6063 0011821  55.8695 304.3500 15.38289809 78340
GLOBAL-32               
1 64231U 25118B   26193.98701072  .00009241  00000+0  24259-3 0  9998
2 64231  58.9937  28.1181 0016307  59.8008 300.4681 15.39253621 62217
GLOBAL-34               
1 68098U 26043A   26194.02414346  .00006566  00000+0  20872-3 0  9996
2 68098  42.0217  71.3341 0001475 116.4669 243.6321 15.33080663 19790
